0 COSMOS 509
1 06122U 72057F   13281.81463166 -.00000038  00000-0 -15856-3 0  9128
2 06122 074.0288 203.3140 0015417 035.4273 018.9497 12.44934481873452
0 COSMOS 509
1 06122U 72057F   13284.16926543 -.00000032  00000-0 -11207-3 0  9133
2 06122 074.0289 200.2145 0015460 031.8593 131.9251 12.44934347873744
0 COSMOS 509
1 06122U 72057F   13286.17516824  .00000001  00000-0  11880-3 0  9145
2 06122 074.0289 197.5742 0015514 028.8952 121.8862 12.44934105873995
0 COSMOS 509
1 06122U 72057F   13288.18489477  .00000029  00000-0  31294-3 0  9153
2 06122 074.0286 194.9289 0015546 025.8339 129.0742 12.44933987874243
0 COSMOS 509
1 06122U 72057F   13290.19341955  .00000024  00000-0  27834-3 0  9166
2 06122 074.0282 192.2852 0015571 022.8278 130.8215 12.44934091874492
0 COSMOS 509
1 06122U 72057F   13292.43452759 -.00000001  00000-0  10580-3 0  9177
2 06122 074.0278 189.3353 0015617 019.5153 094.9119 12.44934401874775
0 COSMOS 509
1 06122U 72057F   13294.44265406 -.00000027  00000-0 -78129-4 0  9185
2 06122 074.0276 186.6918 0015661 016.5845 094.8009 12.44934610875022
